start=new Date('2022-11-15T00:00:00.000Z').valueOf();
sats=[{"APOAPSIS":"541.256","MEAN_MOTION_DOT":"-0.00000546","REF_FRAME":"TEME","NORAD_CAT_ID":"50806","CLASSIFICATION_TYPE":"U","BSTAR":"-0.00001618000000","TLE_LINE2":"2 50806  53.2164 194.3508 0002207  40.5158 319.5998 15.08845245 49038","EPHEMERIS_TYPE":"0","MEAN_MOTION":"15.08845245","TIME_SYSTEM":"UTC","DECAY_DATE":null,"COUNTRY_CODE":"US","OBJECT_TYPE":"PAYLOAD","MEAN_ANOMALY":"319.5998","TLE_LINE1":"1 50806U 22001D   22318.94552724 -.00000546  00000-0 -16180-4 0  9995","EPOCH":"2022-11-14T22:41:33.553536","MEAN_MOTION_DDOT":"0.0000000000000","RCS_SIZE":"LARGE","MEAN_ELEMENT_THEORY":"SGP4","LAUNCH_DATE":"2022-01-06","SITE":"AFETR","RA_OF_ASC_NODE":"194.3508","OBJECT_ID":"2022-001D","SEMIMAJOR_AXIS":"6917.864","FILE":"3656253","INCLINATION":"53.2164","OBJECT_NAME":"STARLINK-3335","ECCENTRICITY":"0.00022070","ELEMENT_SET_NO":"999","CENTER_NAME":"EARTH","REV_AT_EPOCH":"4903","ARG_OF_PERICENTER":"40.5158","GP_ID":"217794529","PERIOD":"95.437","PERIAPSIS":"538.203"},{"TLE_LINE1":"1 50807U 22001E   22318.40088850  .00001737  00000-0  12721-3 0  9998","EPOCH":"2022-11-14T09:37:16.766400","MEAN_ANOMALY":"304.6018","RCS_SIZE":"LARGE","MEAN_ELEMENT_THEORY":"SGP4","MEAN_MOTION_DDOT":"0.0000000000000","RA_OF_ASC_NODE":"196.8206","SITE":"AFETR","LAUNCH_DATE":"2022-01-06","SEMIMAJOR_AXIS":"6917.879","OBJECT_ID":"2022-001E","OBJECT_NAME":"STARLINK-3353","FILE":"3655298","INCLINATION":"53.2163","ARG_OF_PERICENTER":"55.5181","ELEMENT_SET_NO":"999","ECCENTRICITY":"0.00021890","CENTER_NAME":"EARTH","REV_AT_EPOCH":"4895","PERIOD":"95.438","GP_ID":"217747680","PERIAPSIS":"538.230","APOAPSIS":"541.258","MEAN_MOTION_DOT":"0.00001737","REF_FRAME":"TEME","CLASSIFICATION_TYPE":"U","NORAD_CAT_ID":"50807","BSTAR":"0.00012721000000","TLE_LINE2":"2 50807  53.2163 196.8206 0002189  55.5181 304.6018 15.08840437 48957","EPHEMERIS_TYPE":"0","MEAN_MOTION":"15.08840437","COUNTRY_CODE":"US","OBJECT_TYPE":"PAYLOAD","DECAY_DATE":null,"TIME_SYSTEM":"UTC"},{"RCS_SIZE":"LARGE","MEAN_ELEMENT_THEORY":"SGP4","MEAN_MOTION_DDOT":"0.0000000000000","TLE_LINE1":"1 50808U 22001F   22318.40825142  .00001815  00000-0  13215-3 0  9998","EPOCH":"2022-11-14T09:47:52.922688","MEAN_ANOMALY":"325.3188","SEMIMAJOR_AXIS":"6917.897","OBJECT_ID":"2022-001F","RA_OF_ASC_NODE":"196.7772","SITE":"AFETR","LAUNCH_DATE":"2022-01-06","ARG_OF_PERICENTER":"34.7931","ELEMENT_SET_NO":"999","ECCENTRICITY":"0.00019460","CENTER_NAME":"EARTH","REV_AT_EPOCH":"4768","OBJECT_NAME":"STARLINK-3355","FILE":"3654975","INCLINATION":"53.2151","PERIAPSIS":"538.415","PERIOD":"95.438","GP_ID":"217740276","MEAN_MOTION_DOT":"0.00001815","APOAPSIS":"541.108","BSTAR":"0.00013215000000","NORAD_CAT_ID":"50808","REF_FRAME":"TEME","CLASSIFICATION_TYPE":"U","EPHEMERIS_TYPE":"0","TLE_LINE2":"2 50808  53.2151 196.7772 0001946  34.7931 325.3188 15.08834714 47682","COUNTRY_CODE":"US","OBJECT_TYPE":"PAYLOAD","TIME_SYSTEM":"UTC","DECAY_DATE":null,"MEAN_MOTION":"15.08834714"},{"BSTAR":"0.00028363000000","REF_FRAME":"TEME","CLASSIFICATION_TYPE":"U","NORAD_CAT_ID":"50809","MEAN_MOTION_DOT":"0.00004228","APOAPSIS":"541.321","DECAY_DATE":null,"TIME_SYSTEM":"UTC","COUNTRY_CODE":"US","OBJECT_TYPE":"PAYLOAD","MEAN_MOTION":"15.08835832","EPHEMERIS_TYPE":"0","TLE_LINE2":"2 50809  53.2168 198.2532 0002259  24.6578 335.4521 15.08835832 47635","OBJECT_ID":"2022-001G","SEMIMAJOR_AXIS":"6917.893","LAUNCH_DATE":"2022-01-06","SITE":"AFETR","RA_OF_ASC_NODE":"198.2532","MEAN_MOTION_DDOT":"0.0000000000000","RCS_SIZE":"LARGE","MEAN_ELEMENT_THEORY":"SGP4","MEAN_ANOMALY":"335.4521","TLE_LINE1":"1 50809U 22001G   22318.08074033  .00004228  00000-0  28363-3 0  9999","EPOCH":"2022-11-14T01:56:15.964512","PERIAPSIS":"538.195","GP_ID":"217741528","PERIOD":"95.438","ELEMENT_SET_NO":"999","CENTER_NAME":"EARTH","ECCENTRICITY":"0.00022590","REV_AT_EPOCH":"4763","ARG_OF_PERICENTER":"24.6578","INCLINATION":"53.2168","FILE":"3654975","OBJECT_NAME":"STARLINK-3232"},{"REF_FRAME":"TEME","CLASSIFICATION_TYPE":"U","NORAD_CAT_ID":"50810","BSTAR":"0.00031905000000","APOAPSIS":"541.322","MEAN_MOTION_DOT":"0.00004794","MEAN_MOTION":"15.08846860","TIME_SYSTEM":"UTC","DECAY_DATE":null,"COUNTRY_CODE":"US","OBJECT_TYPE":"PAYLOAD","TLE_LINE2":"2 50810  53.2142 195.6167 0002310  39.0343 321.0815 15.08846860 47722","EPHEMERIS_TYPE":"0","LAUNCH_DATE":"2022-01-06","RA_OF_ASC_NODE":"195.6167","SITE":"AFETR","SEMIMAJOR_AXIS":"6917.859","OBJECT_ID":"2022-001H","MEAN_ANOMALY":"321.0815","TLE_LINE1":"1 50810U 22001H   22318.66952701  .00004794  00000-0  31905-3 0  9996","EPOCH":"2022-11-14T16:04:07.133664","MEAN_MOTION_DDOT":"0.0000000000000","RCS_SIZE":"LARGE","MEAN_ELEMENT_THEORY":"SGP4","GP_ID":"217786947","PERIOD":"95.437","PERIAPSIS":"538.126","FILE":"3656014","INCLINATION":"53.2142","OBJECT_NAME":"STARLINK-3348","ELEMENT_SET_NO":"999","ECCENTRICITY":"0.00023100","CENTER_NAME":"EARTH","REV_AT_EPOCH":"4772","ARG_OF_PERICENTER":"39.0343"},{"OBJECT_TYPE":"PAYLOAD","COUNTRY_CODE":"US","DECAY_DATE":null,"TIME_SYSTEM":"UTC","MEAN_MOTION":"15.08835747","EPHEMERIS_TYPE":"0","TLE_LINE2":"2 50811  53.2148 196.8349 0002249  40.7137 319.4023 15.08835747 47684","BSTAR":"-0.00002372000000","REF_FRAME":"TEME","NORAD_CAT_ID":"50811","CLASSIFICATION_TYPE":"U","MEAN_MOTION_DOT":"-0.00000666","APOAPSIS":"541.314","PERIAPSIS":"538.203","PERIOD":"95.438","GP_ID":"217740026","ARG_OF_PERICENTER":"40.7137","REV_AT_EPOCH":"4768","ELEMENT_SET_NO":"999","ECCENTRICITY":"0.00022490","CENTER_NAME":"EARTH","OBJECT_NAME":"STARLINK-3347","FILE":"3654975","INCLINATION":"53.2148","OBJECT_ID":"2022-001J","SEMIMAJOR_AXIS":"6917.893","SITE":"AFETR","RA_OF_ASC_NODE":"196.8349","LAUNCH_DATE":"2022-01-06","MEAN_ELEMENT_THEORY":"SGP4","RCS_SIZE":"LARGE","MEAN_MOTION_DDOT":"0.0000000000000","EPOCH":"2022-11-14T09:31:58.901664","TLE_LINE1":"1 50811U 22001J   22318.39720951 -.00000666  00000-0 -23720-4 0  9990","MEAN_ANOMALY":"319.4023"},{"APOAPSIS":"541.092","MEAN_MOTION_DOT":"-0.00001190","REF_FRAME":"TEME","CLASSIFICATION_TYPE":"U","NORAD_CAT_ID":"50812","BSTAR":"-0.00005666500000","TLE_LINE2":"2 50812  53.2166 195.4922 0001892  40.6120 319.5013 15.08827653 47723","EPHEMERIS_TYPE":"0","MEAN_MOTION":"15.08827653","OBJECT_TYPE":"PAYLOAD","COUNTRY_CODE":"US","TIME_SYSTEM":"UTC","DECAY_DATE":null,"EPOCH":"2022-11-14T16:37:18.534432","TLE_LINE1":"1 50812U 22001K   22318.69257563 -.00001190  00000-0 -56665-4 0  9995","MEAN_ANOMALY":"319.5013","MEAN_ELEMENT_THEORY":"SGP4","RCS_SIZE":"LARGE","MEAN_MOTION_DDOT":"0.0000000000000","SITE":"AFETR","RA_OF_ASC_NODE":"195.4922","LAUNCH_DATE":"2022-01-06","OBJECT_ID":"2022-001K","SEMIMAJOR_AXIS":"6917.918","OBJECT_NAME":"STARLINK-3338","INCLINATION":"53.2166","FILE":"3656014","ARG_OF_PERICENTER":"40.6120","REV_AT_EPOCH":"4772","CENTER_NAME":"EARTH","ELEMENT_SET_NO":"999","ECCENTRICITY":"0.00018920","PERIOD":"95.438","GP_ID":"217785946","PERIAPSIS":"538.474"},{"MEAN_MOTION_DOT":"-0.00002019","APOAPSIS":"541.055","BSTAR":"-0.00010881000000","CLASSIFICATION_TYPE":"U","REF_FRAME":"TEME","NORAD_CAT_ID":"50813","EPHEMERIS_TYPE":"0","TLE_LINE2":"2 50813  53.2158 195.6587 0001871  45.1888 314.9256 15.08834959 47727","COUNTRY_CODE":"US","OBJECT_TYPE":"PAYLOAD","TIME_SYSTEM":"UTC","DECAY_DATE":null,"MEAN_MOTION":"15.08834959","RCS_SIZE":"LARGE","MEAN_ELEMENT_THEORY":"SGP4","MEAN_MOTION_DDOT":"0.0000000000000","TLE_LINE1":"1 50813U 22001L   22318.65945734 -.00002019  00000-0 -10881-3 0  9996","EPOCH":"2022-11-14T15:49:37.114176","MEAN_ANOMALY":"314.9256","OBJECT_ID":"2022-001L","SEMIMAJOR_AXIS":"6917.896","RA_OF_ASC_NODE":"195.6587","SITE":"AFETR","LAUNCH_DATE":"2022-01-06","ARG_OF_PERICENTER":"45.1888","ELEMENT_SET_NO":"999","ECCENTRICITY":"0.00018710","CENTER_NAME":"EARTH","REV_AT_EPOCH":"4772","OBJECT_NAME":"STARLINK-3349","INCLINATION":"53.2158","FILE":"3656014","PERIAPSIS":"538.466","PERIOD":"95.438","GP_ID":"217786196"},{"OBJECT_NAME":"STARLINK-3324","FILE":"3656214","INCLINATION":"53.2172","ARG_OF_PERICENTER":"44.3514","REV_AT_EPOCH":"4889","ECCENTRICITY":"0.00023650","ELEMENT_SET_NO":"999","CENTER_NAME":"EARTH","PERIOD":"95.439","GP_ID":"217793395","PERIAPSIS":"538.173","EPOCH":"2022-11-14T21:41:57.117984","TLE_LINE1":"1 50814U 22001M   22318.90413331  .00004315  00000-0  28919-3 0  9998","MEAN_ANOMALY":"315.7667","MEAN_ELEMENT_THEORY":"SGP4","RCS_SIZE":"LARGE","MEAN_MOTION_DDOT":"0.0000000000000","SITE":"AFETR","RA_OF_ASC_NODE":"204.5587","LAUNCH_DATE":"2022-01-06","SEMIMAJOR_AXIS":"6917.944","OBJECT_ID":"2022-001M","TLE_LINE2":"2 50814  53.2172 204.5587 0002365  44.3514 315.7667 15.08819190 48894","EPHEMERIS_TYPE":"0","MEAN_MOTION":"15.08819190","OBJECT_TYPE":"PAYLOAD","COUNTRY_CODE":"US","TIME_SYSTEM":"UTC","DECAY_DATE":null,"APOAPSIS":"541.445","MEAN_MOTION_DOT":"0.00004315","REF_FRAME":"TEME","CLASSIFICATION_TYPE":"U","NORAD_CAT_ID":"50814","BSTAR":"0.00028919000000"},{"EPHEMERIS_TYPE":"0","TLE_LINE2":"2 50815  53.2172 206.8882 0002413  32.1686 327.9453 15.08824170 47540","DECAY_DATE":null,"TIME_SYSTEM":"UTC","OBJECT_TYPE":"PAYLOAD","COUNTRY_CODE":"US","MEAN_MOTION":"15.08824170","MEAN_MOTION_DOT":"-0.00003290","APOAPSIS":"541.463","BSTAR":"-0.00018877000000","REF_FRAME":"TEME","CLASSIFICATION_TYPE":"U","NORAD_CAT_ID":"50815","REV_AT_EPOCH":"4754","ELEMENT_SET_NO":"999","ECCENTRICITY":"0.00024130","CENTER_NAME":"EARTH","ARG_OF_PERICENTER":"32.1686","FILE":"3654975","INCLINATION":"53.2172","OBJECT_NAME":"STARLINK-3234","PERIAPSIS":"538.124","GP_ID":"217740527","PERIOD":"95.439","MEAN_MOTION_DDOT":"0.0000000000000","MEAN_ELEMENT_THEORY":"SGP4","RCS_SIZE":"LARGE","MEAN_ANOMALY":"327.9453","EPOCH":"2022-11-14T09:14:46.222080","TLE_LINE1":"1 50815U 22001N   22318.38525720 -.00003290  00000-0 -18877-3 0  9992","OBJECT_ID":"2022-001N","SEMIMAJOR_AXIS":"6917.929","LAUNCH_DATE":"2022-01-06","RA_OF_ASC_NODE":"206.8882","SITE":"AFETR"}];
